CCSDS_OMM_VERS = 2.0
CREATION_DATE  = 
ORIGINATOR     = 

OBJECT_NAME    = TITAN 4B R/B
OBJECT_ID      = 2000-047B
CENTER_NAME    = EARTH
REF_FRAME      = TEME
TIME_SYSTEM    = UTC
MEAN_ELEMENT_THEORY = SGP/SGP4

EPOCH          = 2025-11-01T13:39:52.977024
MEAN_MOTION    = 15.08322601
ECCENTRICITY   = .00430251
INCLINATION    = 67.9913
RA_OF_ASC_NODE = 40.4431
ARG_OF_PERICENTER = 191.9941
MEAN_ANOMALY   = 168.0188

EPHEMERIS_TYPE = 0
CLASSIFICATION_TYPE = U
NORAD_CAT_ID   = 26474
ELEMENT_SET_NO = 999
REV_AT_EPOCH   = 37358
BSTAR          = .34534087E-3
MEAN_MOTION_DOT = .5356E-4
MEAN_MOTION_DDOT = 0

CCSDS_OMM_VERS = 2.0
CREATION_DATE  = 
ORIGINATOR     = 

OBJECT_NAME    = ENVISAT
OBJECT_ID      = 2002-009A
CENTER_NAME    = EARTH
REF_FRAME      = TEME
TIME_SYSTEM    = UTC
MEAN_ELEMENT_THEORY = SGP/SGP4

EPOCH          = 2025-11-01T14:58:46.885728
MEAN_MOTION    = 14.38975756
ECCENTRICITY   = .00013652
INCLINATION    = 98.3529
RA_OF_ASC_NODE = 257.4217
ARG_OF_PERICENTER = 84.6791
MEAN_ANOMALY   = 88.2571

EPHEMERIS_TYPE = 0
CLASSIFICATION_TYPE = U
NORAD_CAT_ID   = 27386
ELEMENT_SET_NO = 999
REV_AT_EPOCH   = 24075
BSTAR          = .76966612E-4
MEAN_MOTION_DOT = .195E-5
MEAN_MOTION_DDOT = 0

CCSDS_OMM_VERS = 2.0
CREATION_DATE  = 
ORIGINATOR     = 

OBJECT_NAME    = IDEFIX & ARIANE 42P R/B
OBJECT_ID      = 2002-021B
CENTER_NAME    = EARTH
REF_FRAME      = TEME
TIME_SYSTEM    = UTC
MEAN_ELEMENT_THEORY = SGP/SGP4

EPOCH          = 2025-11-01T12:53:52.131552
MEAN_MOTION    = 14.30903967
ECCENTRICITY   = .0011221
INCLINATION    = 98.5719
RA_OF_ASC_NODE = 240.7773
ARG_OF_PERICENTER = 199.9140
MEAN_ANOMALY   = 160.1607

EPHEMERIS_TYPE = 0
CLASSIFICATION_TYPE = U
NORAD_CAT_ID   = 27422
ELEMENT_SET_NO = 999
REV_AT_EPOCH   = 22569
BSTAR          = .1740902E-3
MEAN_MOTION_DOT = .414E-5
MEAN_MOTION_DDOT = 0

CCSDS_OMM_VERS = 2.0
CREATION_DATE  = 
ORIGINATOR     = 

OBJECT_NAME    = AQUA
OBJECT_ID      = 2002-022A
CENTER_NAME    = EARTH
REF_FRAME      = TEME
TIME_SYSTEM    = UTC
MEAN_ELEMENT_THEORY = SGP/SGP4

EPOCH          = 2025-11-01T15:20:42.001728
MEAN_MOTION    = 14.61657802
ECCENTRICITY   = .00012631
INCLINATION    = 98.3973
RA_OF_ASC_NODE = 265.8686
ARG_OF_PERICENTER = 49.8382
MEAN_ANOMALY   = 123.3683

EPHEMERIS_TYPE = 0
CLASSIFICATION_TYPE = U
NORAD_CAT_ID   = 27424
ELEMENT_SET_NO = 999
REV_AT_EPOCH   = 25002
BSTAR          = .3197436E-3
MEAN_MOTION_DOT = .1542E-4
MEAN_MOTION_DDOT = 0

CCSDS_OMM_VERS = 2.0
CREATION_DATE  = 
ORIGINATOR     = 

OBJECT_NAME    = CZ-4B R/B
OBJECT_ID      = 2002-024C
CENTER_NAME    = EARTH
REF_FRAME      = TEME
TIME_SYSTEM    = UTC
MEAN_ELEMENT_THEORY = SGP/SGP4

EPOCH          = 2025-11-01T15:17:55.137408
MEAN_MOTION    = 14.14515176
ECCENTRICITY   = .00505968
INCLINATION    = 98.9064
RA_OF_ASC_NODE = 354.5398
ARG_OF_PERICENTER = 27.7705
MEAN_ANOMALY   = 124.9634

EPHEMERIS_TYPE = 0
CLASSIFICATION_TYPE = U
NORAD_CAT_ID   = 27432
ELEMENT_SET_NO = 999
REV_AT_EPOCH   = 21113
BSTAR          = .64484113E-4
MEAN_MOTION_DOT = .81E-6
MEAN_MOTION_DDOT = 0

CCSDS_OMM_VERS = 2.0
CREATION_DATE  = 
ORIGINATOR     = 

OBJECT_NAME    = MIDORI II (ADEOS-II)
OBJECT_ID      = 2002-056A
CENTER_NAME    = EARTH
REF_FRAME      = TEME
TIME_SYSTEM    = UTC
MEAN_ELEMENT_THEORY = SGP/SGP4

EPOCH          = 2025-11-01T14:52:24.024000
MEAN_MOTION    = 14.29162154
ECCENTRICITY   = .00017772
INCLINATION    = 98.7567
RA_OF_ASC_NODE = 258.3753
ARG_OF_PERICENTER = 49.5053
MEAN_ANOMALY   = 310.6283

EPHEMERIS_TYPE = 0
CLASSIFICATION_TYPE = U
NORAD_CAT_ID   = 27597
ELEMENT_SET_NO = 999
REV_AT_EPOCH   = 19200
BSTAR          = .17731114E-3
MEAN_MOTION_DOT = .405E-5
MEAN_MOTION_DDOT = 0

CCSDS_OMM_VERS = 2.0
CREATION_DATE  = 
ORIGINATOR     = 

OBJECT_NAME    = H-2A R/B
OBJECT_ID      = 2002-056E
CENTER_NAME    = EARTH
REF_FRAME      = TEME
TIME_SYSTEM    = UTC
MEAN_ELEMENT_THEORY = SGP/SGP4

EPOCH          = 2025-11-01T15:59:00.261600
MEAN_MOTION    = 14.33631655
ECCENTRICITY   = .00701476
INCLINATION    = 98.2999
RA_OF_ASC_NODE = 266.0727
ARG_OF_PERICENTER = 182.1281
MEAN_ANOMALY   = 358.1804

EPHEMERIS_TYPE = 0
CLASSIFICATION_TYPE = U
NORAD_CAT_ID   = 27601
ELEMENT_SET_NO = 999
REV_AT_EPOCH   = 19576
BSTAR          = .15138841E-3
MEAN_MOTION_DOT = .39E-5
MEAN_MOTION_DDOT = 0

CCSDS_OMM_VERS = 2.0
CREATION_DATE  = 
ORIGINATOR     = 

OBJECT_NAME    = CZ-4B R/B
OBJECT_ID      = 2003-049C
CENTER_NAME    = EARTH
REF_FRAME      = TEME
TIME_SYSTEM    = UTC
MEAN_ELEMENT_THEORY = SGP/SGP4

EPOCH          = 2025-11-01T11:14:35.334528
MEAN_MOTION    = 14.54849761
ECCENTRICITY   = .00470595
INCLINATION    = 98.6759
RA_OF_ASC_NODE = 290.4797
ARG_OF_PERICENTER = 262.9731
MEAN_ANOMALY   = 96.6111

EPHEMERIS_TYPE = 0
CLASSIFICATION_TYPE = U
NORAD_CAT_ID   = 28059
ELEMENT_SET_NO = 999
REV_AT_EPOCH   = 16795
BSTAR          = .1504907E-3
MEAN_MOTION_DOT = .604E-5
MEAN_MOTION_DDOT = 0

CCSDS_OMM_VERS = 2.0
CREATION_DATE  = 
ORIGINATOR     = 

OBJECT_NAME    = CZ-2C R/B
OBJECT_ID      = 2004-012C
CENTER_NAME    = EARTH
REF_FRAME      = TEME
TIME_SYSTEM    = UTC
MEAN_ELEMENT_THEORY = SGP/SGP4

EPOCH          = 2025-11-01T09:22:08.509728
MEAN_MOTION    = 15.51873127
ECCENTRICITY   = .00205515
INCLINATION    = 97.7505
RA_OF_ASC_NODE = 354.7022
ARG_OF_PERICENTER = 64.1654
MEAN_ANOMALY   = 296.1714

EPHEMERIS_TYPE = 0
CLASSIFICATION_TYPE = U
NORAD_CAT_ID   = 28222
ELEMENT_SET_NO = 999
REV_AT_EPOCH   = 18430
BSTAR          = .55385621E-3
MEAN_MOTION_DOT = .33448E-3
MEAN_MOTION_DDOT = 0

CCSDS_OMM_VERS = 2.0
CREATION_DATE  = 
ORIGINATOR     = 

OBJECT_NAME    = SL-16 R/B
OBJECT_ID      = 2004-021B
CENTER_NAME    = EARTH
REF_FRAME      = TEME
TIME_SYSTEM    = UTC
MEAN_ELEMENT_THEORY = SGP/SGP4

EPOCH          = 2025-11-01T12:53:10.021056
MEAN_MOTION    = 14.14570039
ECCENTRICITY   = .00070677
INCLINATION    = 70.9975
RA_OF_ASC_NODE = 141.4298
ARG_OF_PERICENTER = 244.5886
MEAN_ANOMALY   = 115.4506

EPHEMERIS_TYPE = 0
CLASSIFICATION_TYPE = U
NORAD_CAT_ID   = 28353
ELEMENT_SET_NO = 999
REV_AT_EPOCH   = 10471
BSTAR          = -.64922337E-4
MEAN_MOTION_DOT = -.172E-5
MEAN_MOTION_DDOT = 0

CCSDS_OMM_VERS = 2.0
CREATION_DATE  = 
ORIGINATOR     = 

OBJECT_NAME    = CZ-4B R/B
OBJECT_ID      = 2004-035C
CENTER_NAME    = EARTH
REF_FRAME      = TEME
TIME_SYSTEM    = UTC
MEAN_ELEMENT_THEORY = SGP/SGP4

EPOCH          = 2025-11-01T08:09:50.651712
MEAN_MOTION    = 15.26414497
ECCENTRICITY   = .00357206
INCLINATION    = 97.3677
RA_OF_ASC_NODE = 336.2529
ARG_OF_PERICENTER = 64.8743
MEAN_ANOMALY   = 295.6195

EPHEMERIS_TYPE = 0
CLASSIFICATION_TYPE = U
NORAD_CAT_ID   = 28415
ELEMENT_SET_NO = 999
REV_AT_EPOCH   = 16031
BSTAR          = .34910143E-3
MEAN_MOTION_DOT = .9187E-4
MEAN_MOTION_DDOT = 0

CCSDS_OMM_VERS = 2.0
CREATION_DATE  = 
ORIGINATOR     = 

OBJECT_NAME    = CZ-2C R/B
OBJECT_ID      = 2004-046B
CENTER_NAME    = EARTH
REF_FRAME      = TEME
TIME_SYSTEM    = UTC
MEAN_ELEMENT_THEORY = SGP/SGP4

EPOCH          = 2025-11-01T12:24:47.974752
MEAN_MOTION    = 14.26913205
ECCENTRICITY   = .013961
INCLINATION    = 98.1947
RA_OF_ASC_NODE = 223.4660
ARG_OF_PERICENTER = 173.4027
MEAN_ANOMALY   = 186.9035

EPHEMERIS_TYPE = 0
CLASSIFICATION_TYPE = U
NORAD_CAT_ID   = 28480
ELEMENT_SET_NO = 999
REV_AT_EPOCH   = 9022
BSTAR          = .92800723E-4
MEAN_MOTION_DOT = .209E-5
MEAN_MOTION_DDOT = 0

