TITAN 4B R/B            
1 26474U 00047B   25305.56936316  .00005356  00000+0  34534-3 0  9998
2 26474  67.9913  40.4431 0043025 191.9941 168.0188 15.08322601373580
ENVISAT                 
1 27386U 02009A   25305.62415377  .00000195  00000+0  76967-4 0  9990
2 27386  98.3529 257.4217 0001365  84.6791  88.2571 14.38975756240756
IDEFIX & ARIANE 42P R/B 
1 27422U 02021B   25305.53740893  .00000414  00000+0  17409-3 0  9998
2 27422  98.5719 240.7773 0011221 199.9140 160.1607 14.30903967225695
AQUA                    
1 27424U 02022A   25305.63937502  .00001542  00000+0  31974-3 0  9993
2 27424  98.3973 265.8686 0001263  49.8382 123.3683 14.61657802250022
CZ-4B R/B               
1 27432U 02024C   25305.63744372  .00000081  00000+0  64484-4 0  9995
2 27432  98.9064 354.5398 0050596  27.7705 124.9634 14.14515176211138
MIDORI II (ADEOS-II)    
1 27597U 02056A   25305.61972250  .00000405  00000+0  17731-3 0  9990
2 27597  98.7567 258.3753 0001777  49.5053 310.6283 14.29162154192005
H-2A R/B                
1 27601U 02056E   25305.66597525  .00000390  00000+0  15139-3 0  9992
2 27601  98.2999 266.0727 0070147 182.1281 358.1804 14.33631655195760
CZ-4B R/B               
1 28059U 03049C   25305.46846452  .00000604  00000+0  15049-3 0  9995
2 28059  98.6759 290.4797 0047059 262.9731  96.6111 14.54849761167954
CZ-2C R/B               
1 28222U 04012C   25305.39037627  .00033448  00000+0  55386-3 0  9996
2 28222  97.7505 354.7022 0020551  64.1654 296.1714 15.51873127184309
SL-16 R/B               
1 28353U 04021B   25305.53692154 -.00000172  00000+0 -64922-4 0  9996
2 28353  70.9975 141.4298 0007067 244.5886 115.4506 14.14570039104715
CZ-4B R/B               
1 28415U 04035C   25305.34016958  .00009187  00000+0  34910-3 0  9997
2 28415  97.3677 336.2529 0035720  64.8743 295.6195 15.26414497160311
CZ-2C R/B               
1 28480U 04046B   25305.51722193  .00000209  00000+0  92801-4 0  9995
2 28480  98.1947 223.4660 0139610 173.4027 186.9035 14.26913205 90227
